{
  "type": "FeatureCollection",
  "features": [
    {
      "type": "Feature",
      "properties": {
        "norad_id": 66909,
        "name": "SILVERSAT",
        "group": "stations",
        "lat": 28.153118653789043,
        "lon": -49.013556648753124,
        "alt_km": 408.82662598175193,
        "timestamp": "2025-12-09T23:33:22.626022+00:00",
        "meta_object_name": "SILVERSAT",
        "meta_object_id": "1998-067XV",
        "meta_epoch": "2025-12-09T15:12:39.386016",
        "meta_mean_motion": 15.5102294,
        "meta_eccentricity": 0.00048745,
        "meta_inclination": 51.6303,
        "meta_ra_of_asc_node": 157.7998,
        "meta_arg_of_pericenter": 209.5362,
        "meta_mean_anomaly": 150.5352,
        "meta_ephemeris_type": 0,
        "meta_classification_type": "U",
        "meta_norad_cat_id": 66909,
        "meta_element_set_no": 999,
        "meta_rev_at_epoch": 113,
        "meta_bstar": 0.0013732623,
        "meta_mean_motion_dot": 0.00081682,
        "meta_mean_motion_ddot": 0,
        "tle_line1": "1 66909U 98067XV  25343.63378919  .00081682  00000+0  13733-2 0  9996",
        "tle_line2": "2 66909  51.6303 157.7998 0004874 209.5362 150.5352 15.51022940  1131"
      },
      "geometry": {
        "type": "Point",
        "coordinates": [
          -49.013556648753124,
          28.153118653789043
        ]
      }
    },
    {
      "type": "Feature",
      "properties": {
        "norad_id": 66910,
        "name": "1998-067XW",
        "group": "stations",
        "lat": 23.213805379314074,
        "lon": -43.80772682777935,
        "alt_km": 407.45103606878365,
        "timestamp": "2025-12-09T23:33:22.626035+00:00",
        "meta_object_name": "1998-067XW",
        "meta_object_id": "1998-067XW",
        "meta_epoch": "2025-12-08T22:10:28.285536",
        "meta_mean_motion": 15.51111527,
        "meta_eccentricity": 0.0005924,
        "meta_inclination": 51.6296,
        "meta_ra_of_asc_node": 161.31,
        "meta_arg_of_pericenter": 189.6176,
        "meta_mean_anomaly": 170.4701,
        "meta_ephemeris_type": 0,
        "meta_classification_type": "U",
        "meta_norad_cat_id": 66910,
        "meta_element_set_no": 999,
        "meta_rev_at_epoch": 102,
        "meta_bstar": 0.0011826614,
        "meta_mean_motion_dot": 0.00070418,
        "meta_mean_motion_ddot": 0,
        "tle_line1": "1 66910U 98067XW  25342.92393849  .00070418  00000+0  11827-2 0  9995",
        "tle_line2": "2 66910  51.6296 161.3100 0005924 189.6176 170.4701 15.51111527  1025"
      },
      "geometry": {
        "type": "Point",
        "coordinates": [
          -43.80772682777935,
          23.213805379314074
        ]
      }
    },
    {
      "type": "Feature",
      "properties": {
        "norad_id": 66911,
        "name": "1998-067XX",
        "group": "stations",
        "lat": 21.780047735177092,
        "lon": -42.40176969210103,
        "alt_km": 407.2642450844105,
        "timestamp": "2025-12-09T23:33:22.626045+00:00",
        "meta_object_name": "1998-067XX",
        "meta_object_id": "1998-067XX",
        "meta_epoch": "2025-12-09T02:48:25.040736",
        "meta_mean_motion": 15.51276485,
        "meta_eccentricity": 0.00057034,
        "meta_inclination": 51.6296,
        "meta_ra_of_asc_node": 160.3494,
        "meta_arg_of_pericenter": 191.2268,
        "meta_mean_anomaly": 168.8595,
        "meta_ephemeris_type": 0,
        "meta_classification_type": "U",
        "meta_norad_cat_id": 66911,
        "meta_element_set_no": 999,
        "meta_rev_at_epoch": 104,
        "meta_bstar": 0.0014245982,
        "meta_mean_motion_dot": 0.00085582,
        "meta_mean_motion_ddot": 0,
        "tle_line1": "1 66911U 98067XX  25343.11695649  .00085582  00000+0  14246-2 0  9997",
        "tle_line2": "2 66911  51.6296 160.3494 0005703 191.2268 168.8595 15.51276485  1046"
      },
      "geometry": {
        "type": "Point",
        "coordinates": [
          -42.40176969210103,
          21.780047735177092
        ]
      }
    },
    {
      "type": "Feature",
      "properties": {
        "norad_id": 66912,
        "name": "1998-067XY",
        "group": "stations",
        "lat": 31.6865321286028,
        "lon": -53.19787767179576,
        "alt_km": 409.33905635904375,
        "timestamp": "2025-12-09T23:33:22.626055+00:00",
        "meta_object_name": "1998-067XY",
        "meta_object_id": "1998-067XY",
        "meta_epoch": "2025-12-08T19:07:24.168000",
        "meta_mean_motion": 15.50590071,
        "meta_eccentricity": 0.00050436,
        "meta_inclination": 51.6301,
        "meta_ra_of_asc_node": 161.961,
        "meta_arg_of_pericenter": 202.8278,
        "meta_mean_anomaly": 157.2488,
        "meta_ephemeris_type": 0,
        "meta_classification_type": "U",
        "meta_norad_cat_id": 66912,
        "meta_element_set_no": 999,
        "meta_rev_at_epoch": 99,
        "meta_bstar": 0.0009627216,
        "meta_mean_motion_dot": 0.00056065,
        "meta_mean_motion_ddot": 0,
        "tle_line1": "1 66912U 98067XY  25342.79680750  .00056065  00000+0  96272-3 0  9992",
        "tle_line2": "2 66912  51.6301 161.9610 0005043 202.8278 157.2488 15.50590071   993"
      },
      "geometry": {
        "type": "Point",
        "coordinates": [
          -53.19787767179576,
          31.6865321286028
        ]
      }
    }
  ]
}